#aV2014  5 15  0  0  0.00000000     288 DD+AD WGS84 FIT  NGA
## 1792 345600.00000000   300.00000000 56792 0.0000000000000
+   31     1  2  3  4  5  7  8  9 10 11 12 13 14 15 16 17 18
+         19 20 21 22 23 24 25 26 27 28 29 30 31 32  0  0  0
+          0  0  0  0  0  0  0  0  0  0  0  0  0  0  0  0  0
+          0  0  0  0  0  0  0  0  0  0  0  0  0  0  0  0  0
+          0  0  0  0  0  0  0  0  0  0  0  0  0  0  0  0  0
++         2  2  2  2  2  2  2  2  2  2  2  2  2  2  2  2  2
++         2  2  2  2  2  2  2  2  2  2  2  2  2  2  0  0  0
++         0  0  0  0  0  0  0  0  0  0  0  0  0  0  0  0  0
++         0  0  0  0  0  0  0  0  0  0  0  0  0  0  0  0  0
++         0  0  0  0  0  0  0  0  0  0  0  0  0  0  0  0  0
%c cc cc ccc ccc cccc cccc cccc cccc ccccc ccccc ccccc ccccc
%c cc cc ccc ccc cccc cccc cccc cccc ccccc ccccc ccccc ccccc
%f  0.0000000  0.000000000  0.00000000000  0.000000000000000
%f  0.0000000  0.000000000  0.00000000000  0.000000000000000
%i    0    0    0    0      0      0      0      0         0
%i    0    0    0    0      0      0      0      0         0
/*      NGA, ST. LOUIS,MO.                                  
/*   EPHEMERIS COMPUTED FROM  1 DAYS OF DATA                
/*   EPOCHA SMOOTHER                                       
/* CCCCCCCCCCCCCCCCCCCCCCCCCCCCCCCCCCCCCCCCCCCCCCCCCCCCCCCCC
*  2014  5 15  9  0  0.00000000
P  1 -10243.650385  21038.415653 -12462.783879     12.266785                    
V  1 -13357.511588   8836.316608  26091.870611      0.012628                    
P  2  21592.997057 -12381.116339  -8234.955508    495.429306                    
V  2  -5390.277883  10310.319152 -29117.724420      0.021535                    
P  3 -10064.850100  13928.528964  19668.538471    365.002833                    
V  3 -10843.050988 -24010.911358  11300.897687      0.050641                    
P  4  19538.190966    261.064804 -18401.119663      6.881208                    
V  4 -15523.847711  16688.153792 -16293.037052      0.000523                    
P  5  21355.347015  -4734.558653  15141.851458   -372.712046                    
V  5  17725.992288   7853.523855 -22327.665036      0.024958                    
P  7   3280.457960  16027.454624  20919.217190    346.483271                    
V  7 -20520.996117  16708.650145  -9941.426242      0.042381                    
P  8  11689.020915   9296.353723  22173.702155     13.581008                    
V  8 -22535.511447  15976.005358   4626.365886      0.001363                    
P  9  14696.796099   5534.792746  20921.320045    327.705774                    
V  9 -20126.068350  19071.731245   8685.494585      0.028194                    
P 10  25316.134054   8775.292342   -503.865942   -125.619416                    
V 10  -1176.553831   2804.575621 -31057.683697     -0.015130                    
P 11 -11076.063969  23929.441744  -2542.861217   -489.073873                    
V 11  -5808.604831   -131.033459  30006.900476     -0.031653                    
P 12   4905.875916 -13809.246767 -22218.176443    205.047243                    
V 12  26279.514753   9577.035343     66.015280      0.024733                    
P 13   4416.652812  25990.865460   2240.933918     -0.367933                    
V 13  -2061.949792   3266.187182 -32072.322153     -0.038070                    
P 14 -13628.937323 -15634.911106 -16457.423222    172.718988                    
V 14  -1413.215078 -21244.764846  20928.338470     -0.034216                    
P 15   6286.907898 -20574.384192  15330.387292   -179.587636                    
V 15   7568.588044  18438.162030  21852.062025     -0.021684                    
P 16 -21445.437914   2818.563738  15608.183349   -218.362110                    
V 16 -17998.246548  -8116.125648 -22837.163586      0.019051                    
P 17  14291.554006  14680.236914 -16765.581106    -93.293587                    
V 17   2207.664597  21625.058659  20281.238690     -0.031020                    
P 18 -15035.040155 -16488.820351  15100.780487    319.347062                    
V 18  18266.492461   3061.192331  21865.278391      0.023773                    
P 19  -9196.832048  18340.674633  16472.356308   -456.968119                    
V 19  -4675.028272 -20930.184897  20964.171747     -0.022062                    
P 20  -2520.675216  15872.875142 -21336.181737    189.645927                    
V 20 -26035.174054  -6327.430917  -1579.246423      0.038668                    
P 21  -7812.236614 -14478.749069  21439.953900   -361.194439                    
V 21  19513.977326 -17094.957284  -5033.962987     -0.022121                    
P 22 -24025.119631 -10793.865820   4266.719954    234.358135                    
V 22   6039.603162  -2043.662171  30182.532221      0.027691                    
P 23  -1817.534903  24440.176089  -9586.751039    -20.642182                    
V 23  -5630.488967 -11557.452631 -28508.525881     -0.030742                    
P 24  13938.792120 -20995.073194  -8260.893920    -28.394652                    
V 24   9579.806927  -5113.407116  29331.827509     -0.006169                    
P 25  -8806.941726 -16318.538507 -19138.218273     23.831686                    
V 25  23278.791074   6181.516317 -15911.370687      0.005773                    
P 26  12852.873573  -9479.401252  20507.472190     78.203305                    
V 26   4261.426053  27275.139447   9915.368589     -0.117757                    
P 27 -13725.362794   7236.890481  21545.938040    -16.267237                    
V 27  -6411.962323 -26609.525253   4908.747628      0.018153                    
P 28  21395.260423  14003.036300   8032.334467    354.904691                    
V 28  -9275.575688  -1847.864626  30080.158913      0.027827                    
P 29  -5121.673407 -26068.266763   1097.929143    532.650600                    
V 29   2247.876263  -1736.952188 -31871.296851      0.026185                    
P 30  12192.611953   9651.817845  21524.908090    -11.298133                    
V 30 -21336.975567  17128.913274   4375.494160     -0.048814                    
P 31 -20840.583310   3643.189833 -16093.514973    334.244319                    
V 31  14665.974101 -14476.159236 -21759.381705     -0.000447                    
P 32 -15200.217643   8969.940492 -19625.081194   -428.538466                    
V 32 -22734.250946 -11116.876317  13026.349573      0.081474                    
EOF
